{
  "type": "FeatureCollection",
  "features": [
    {
      "type": "Feature",
      "properties": { "name": "Balochistan", "code": "BAL" },
      "geometry": {
        "type": "Polygon",
        "coordinates": [[
          [60.87, 29.57],
          [60.90, 27.00],
          [62.00, 25.10],
          [63.50, 24.00],
          [65.50, 23.80],
          [67.50, 23.80],
          [69.00, 24.20],
          [69.80, 25.50],
          [70.20, 27.50],
          [70.00, 29.50],
          [69.50, 31.00],
          [68.50, 31.50],
          [67.50, 32.00],
          [65.00, 31.50],
          [63.50, 31.30],
          [62.50, 31.00],
          [61.50, 30.50],
          [60.87, 29.57]
        ]]
      }
    },
    {
      "type": "Feature",
      "properties": { "name": "Sindh", "code": "SIN" },
      "geometry": {
        "type": "Polygon",
        "coordinates": [[
          [67.50, 23.80],
          [69.00, 23.60],
          [71.00, 24.00],
          [71.20, 25.50],
          [71.00, 27.00],
          [70.20, 27.50],
          [69.80, 25.50],
          [69.00, 24.20],
          [67.50, 23.80]
        ]]
      }
    },
    {
      "type": "Feature",
      "properties": { "name": "Punjab", "code": "PUN" },
      "geometry": {
        "type": "Polygon",
        "coordinates": [[
          [70.20, 27.50],
          [71.00, 27.00],
          [71.20, 25.50],
          [73.00, 26.50],
          [74.50, 27.50],
          [75.40, 30.00],
          [74.50, 32.50],
          [73.50, 33.50],
          [72.50, 34.00],
          [71.50, 33.50],
          [70.50, 33.00],
          [69.50, 31.50],
          [69.50, 31.00],
          [70.00, 29.50],
          [70.20, 27.50]
        ]]
      }
    },
    {
      "type": "Feature",
      "properties": { "name": "Khyber Pakhtunkhwa", "code": "KPK" },
      "geometry": {
        "type": "Polygon",
        "coordinates": [[
          [69.50, 31.00],
          [69.50, 31.50],
          [70.50, 33.00],
          [71.50, 33.50],
          [72.50, 34.00],
          [73.00, 34.50],
          [73.00, 35.50],
          [72.50, 36.00],
          [72.00, 36.50],
          [71.00, 36.50],
          [70.00, 36.50],
          [69.00, 35.50],
          [68.50, 34.00],
          [68.00, 32.50],
          [67.50, 32.00],
          [68.50, 31.50],
          [69.50, 31.00]
        ]]
      }
    },
    {
      "type": "Feature",
      "properties": { "name": "Azad Jammu & Kashmir", "code": "AJK" },
      "geometry": {
        "type": "Polygon",
        "coordinates": [[
          [73.00, 33.50],
          [73.50, 33.50],
          [74.00, 33.00],
          [74.50, 33.50],
          [74.70, 34.50],
          [74.50, 35.00],
          [74.00, 35.20],
          [73.50, 35.00],
          [73.00, 34.50],
          [73.00, 33.50]
        ]]
      }
    },
    {
      "type": "Feature",
      "properties": { "name": "Gilgit-Baltistan", "code": "GB" },
      "geometry": {
        "type": "Polygon",
        "coordinates": [[
          [72.00, 36.50],
          [72.50, 36.00],
          [73.00, 35.50],
          [73.50, 35.00],
          [74.00, 35.20],
          [74.50, 35.00],
          [74.70, 34.50],
          [75.00, 34.80],
          [76.00, 35.50],
          [77.00, 36.00],
          [77.50, 36.80],
          [76.00, 37.10],
          [74.50, 37.10],
          [73.00, 36.80],
          [72.00, 36.50]
        ]]
      }
    }
  ]
}
